{"type":"FeatureCollection","features":[{"type":"Feature","geometry":{"type":"Polygon","coordinates":[[[90.99108,25.168],[90.99108,25.16791],[90.99098,25.16791],[90.99098,25.16773],[90.99108,25.16773],[90.99108,25.16764],[90.99118,25.16764],[90.99118,25.16755],[90.99099,25.16754],[90.99099,25.16745],[90.99079,25.16745],[90.99079,25.16754],[90.99069,25.16754],[90.99069,25.16745],[90.99049,25.16745],[90.99049,25.16736],[90.99069,25.16736],[90.99069,25.16718],[90.9904,25.16718],[90.9904,25.16709],[90.9901,25.16708],[90.9901,25.1669],[90.99,25.1669],[90.99001,25.16672],[90.99011,25.16672],[90.99011,25.16663],[90.99021,25.16663],[90.99021,25.16645],[90.99001,25.16645],[90.99001,25.16654],[90.98991,25.16654],[90.98991,25.16636],[90.98981,25.16636],[90.98982,25.16617],[90.98992,25.16618],[90.98992,25.16609],[90.99002,25.16609],[90.99001,25.16627],[90.99041,25.16627],[90.99041,25.16645],[90.99031,25.16645],[90.99031,25.16654],[90.9906,25.16655],[90.9906,25.16682],[90.9907,25.16682],[90.9907,25.16691],[90.9909,25.16691],[90.99089,25.16709],[90.99079,25.16709],[90.99079,25.16718],[90.99089,25.16718],[90.99089,25.16727],[90.99109,25.16728],[90.99109,25.16737],[90.99129,25.16737],[90.99128,25.16773],[90.99118,25.16773],[90.99118,25.16782],[90.99128,25.16782],[90.99128,25.16791],[90.99118,25.16791],[90.99118,25.168],[90.99108,25.168]],[[90.9906,25.167],[90.9907,25.167],[90.9907,25.16691],[90.9906,25.16691],[90.9906,25.167]],[[90.9903,25.16681],[90.9904,25.16681],[90.9904,25.16672],[90.9903,25.16672],[90.9903,25.16681]]]},"properties":{"id":"wetland_patch_91dca883c354","date":"2026-08-17","area_km2":0.0083,"pixel_count":83,"classification":"OPEN_WATER","interpretation_label":"HH darkening candidate","mean_delta_db":-4.737981049411268,"median_delta_db":-4.494775772094727,"hh_before":-12.369761363569513,"hh_after":-17.10774241298078,"hv_before":-19.827499780310205,"hv_after":-21.633210561361658,"delta_hh":-4.737981049411268,"delta_hv":-1.8057107810514519,"valid_fraction":0.9619047619047619,"valid_fraction_scope":"region bounding box, all four channels","vegetated_fraction":0.0,"quality_status":"PASS","spatial_status":"PARTIAL","temporal_status":"PASS","temporal_overlap_fraction":0.7951807228915663,"threshold_stability":"SENSITIVE","threshold_variation_fraction":0.23717948717948717,"evidence_state":"MODERATE","centroid":[25.16698349834283,90.99054435063222],"data_source":"NISAR","evidence_method":"Rule consistency only; no accuracy estimate or independent reference validation.","baseline_method":"PER_PIXEL_MEDIAN","baseline_observation_count":4,"baseline_observation_dates":["2026-06-18","2026-06-30","2026-07-12","2026-07-24"],"baseline_hh_temporal_mad_db":1.015869140625,"baseline_scene_names":["NISAR_L2_PR_GCOV_023_069_A_014_4005_DHDH_A_20260618T232135_20260618T232210_P05023_N_F_J_001","NISAR_L2_PR_GCOV_024_069_A_014_4005_DHDH_A_20260630T232134_20260630T232209_P05023_N_F_J_001","NISAR_L2_PR_GCOV_025_069_A_014_4005_DHDH_A_20260712T232134_20260712T232208_P05023_N_F_J_001","NISAR_L2_PR_GCOV_026_069_A_014_4005_DHDH_A_20260724T232133_20260724T232208_P05023_N_F_J_001"],"contextual_land_cover":null,"distance_to_water_m":null,"context_status":"NOT_AVAILABLE","reference_validated":false}},{"type":"Feature","geometry":{"type":"Polygon","coordinates":[[[90.98979,25.16771],[90.98979,25.16762],[90.9896,25.16762],[90.9896,25.16753],[90.9894,25.16752],[90.9894,25.16734],[90.9896,25.16735],[90.9896,25.16726],[90.9893,25.16725],[90.9893,25.16734],[90.989,25.16734],[90.98901,25.16725],[90.98881,25.16724],[90.98881,25.16715],[90.98871,25.16715],[90.98871,25.16706],[90.98851,25.16706],[90.98851,25.16697],[90.98842,25.16697],[90.98842,25.16688],[90.98862,25.16688],[90.98861,25.16697],[90.98881,25.16697],[90.98881,25.16688],[90.98891,25.16688],[90.98891,25.16679],[90.98882,25.16679],[90.98882,25.1667],[90.98872,25.1667],[90.98872,25.16661],[90.98892,25.16661],[90.98892,25.16643],[90.98882,25.16643],[90.98882,25.16634],[90.98902,25.16634],[90.98902,25.16643],[90.98912,25.16644],[90.98911,25.16671],[90.98921,25.16671],[90.98922,25.16653],[90.98932,25.16653],[90.98931,25.16662],[90.98941,25.16662],[90.98941,25.16671],[90.98931,25.16671],[90.98931,25.1668],[90.98981,25.16681],[90.98981,25.1669],[90.9899,25.1669],[90.9899,25.16708],[90.99,25.16708],[90.99,25.16726],[90.9901,25.16726],[90.9901,25.16735],[90.99019,25.16735],[90.99019,25.16744],[90.98999,25.16744],[90.98999,25.16753],[90.98989,25.16753],[90.98989,25.16771],[90.98979,25.16771]],[[90.9899,25.16735],[90.99,25.16735],[90.99,25.16726],[90.9899,25.16726],[90.9899,25.16735]],[[90.98901,25.16707],[90.98911,25.16707],[90.98911,25.16698],[90.98901,25.16698],[90.98901,25.16707]],[[90.98921,25.16707],[90.98931,25.16707],[90.98931,25.16698],[90.98921,25.16698],[90.98921,25.16707]],[[90.9895,25.16707],[90.9896,25.16707],[90.98961,25.16698],[90.98951,25.16698],[90.9895,25.16707]],[[90.9897,25.16708],[90.9898,25.16708],[90.9898,25.16699],[90.9897,25.16699],[90.9897,25.16708]]]},"properties":{"id":"wetland_patch_6dbb15c589df","date":"2026-08-17","area_km2":0.01,"pixel_count":100,"classification":"OPEN_WATER","interpretation_label":"HH darkening candidate","mean_delta_db":-5.400607767105103,"median_delta_db":-5.167422771453857,"hh_before":-12.458652467727662,"hh_after":-17.859260234832764,"hv_before":-19.487742557525635,"hv_after":-21.730022945404052,"delta_hh":-5.400607767105103,"delta_hv":-2.242280387878418,"valid_fraction":0.7851851851851852,"valid_fraction_scope":"region bounding box, all four channels","vegetated_fraction":0.0,"quality_status":"PARTIAL","spatial_status":"PARTIAL","temporal_status":"PASS","temporal_overlap_fraction":0.51,"threshold_stability":"SENSITIVE","threshold_variation_fraction":0.22535211267605634,"evidence_state":"UNCERTAIN","centroid":[25.167056718974127,90.98935144825131],"data_source":"NISAR","evidence_method":"Rule consistency only; no accuracy estimate or independent reference validation.","baseline_method":"PER_PIXEL_MEDIAN","baseline_observation_count":4,"baseline_observation_dates":["2026-06-18","2026-06-30","2026-07-12","2026-07-24"],"baseline_hh_temporal_mad_db":1.015869140625,"baseline_scene_names":["NISAR_L2_PR_GCOV_023_069_A_014_4005_DHDH_A_20260618T232135_20260618T232210_P05023_N_F_J_001","NISAR_L2_PR_GCOV_024_069_A_014_4005_DHDH_A_20260630T232134_20260630T232209_P05023_N_F_J_001","NISAR_L2_PR_GCOV_025_069_A_014_4005_DHDH_A_20260712T232134_20260712T232208_P05023_N_F_J_001","NISAR_L2_PR_GCOV_026_069_A_014_4005_DHDH_A_20260724T232133_20260724T232208_P05023_N_F_J_001"],"contextual_land_cover":null,"distance_to_water_m":null,"context_status":"NOT_AVAILABLE","reference_validated":false}},{"type":"Feature","geometry":{"type":"Polygon","coordinates":[[[90.98822,25.16688],[90.98822,25.16678],[90.98812,25.16678],[90.98812,25.16669],[90.98802,25.16669],[90.98802,25.1666],[90.98793,25.1666],[90.98793,25.16651],[90.98763,25.16651],[90.98763,25.16633],[90.98743,25.16632],[90.98744,25.16623],[90.98734,25.16623],[90.98734,25.16614],[90.98704,25.16614],[90.98704,25.16605],[90.98694,25.16605],[90.98694,25.16596],[90.98685,25.16595],[90.98685,25.16586],[90.98704,25.16587],[90.98705,25.16578],[90.98724,25.16578],[90.98724,25.16596],[90.98734,25.16596],[90.98734,25.16605],[90.98744,25.16605],[90.98744,25.16614],[90.98764,25.16615],[90.98763,25.16624],[90.98803,25.16624],[90.98803,25.16651],[90.98813,25.16651],[90.98812,25.1666],[90.98822,25.1666],[90.98823,25.16642],[90.98813,25.16642],[90.98813,25.16624],[90.98823,25.16624],[90.98823,25.16606],[90.98843,25.16607],[90.98843,25.16634],[90.98833,25.16634],[90.98832,25.1667],[90.98842,25.1667],[90.98842,25.16688],[90.98822,25.16688]],[[90.98783,25.16642],[90.98793,25.16642],[90.98793,25.16633],[90.98783,25.16633],[90.98783,25.16642]]]},"properties":{"id":"wetland_patch_205e8f6bc82a","date":"2026-08-17","area_km2":0.0051,"pixel_count":51,"classification":"OPEN_WATER","interpretation_label":"HH darkening candidate","mean_delta_db":-4.480770615970387,"median_delta_db":-3.9884767532348633,"hh_before":-13.386462417303347,"hh_after":-17.867233033273735,"hv_before":-20.269035152360505,"hv_after":-21.78098704768162,"delta_hh":-4.480770615970387,"delta_hv":-1.5119518953211166,"valid_fraction":0.609375,"valid_fraction_scope":"region bounding box, all four channels","vegetated_fraction":0.0,"quality_status":"PARTIAL","spatial_status":"PARTIAL","temporal_status":"PASS","temporal_overlap_fraction":0.5098039215686274,"threshold_stability":"SENSITIVE","threshold_variation_fraction":0.25,"evidence_state":"UNCERTAIN","centroid":[25.166296639842024,90.98777984153875],"data_source":"NISAR","evidence_method":"Rule consistency only; no accuracy estimate or independent reference validation.","baseline_method":"PER_PIXEL_MEDIAN","baseline_observation_count":4,"baseline_observation_dates":["2026-06-18","2026-06-30","2026-07-12","2026-07-24"],"baseline_hh_temporal_mad_db":1.015869140625,"baseline_scene_names":["NISAR_L2_PR_GCOV_023_069_A_014_4005_DHDH_A_20260618T232135_20260618T232210_P05023_N_F_J_001","NISAR_L2_PR_GCOV_024_069_A_014_4005_DHDH_A_20260630T232134_20260630T232209_P05023_N_F_J_001","NISAR_L2_PR_GCOV_025_069_A_014_4005_DHDH_A_20260712T232134_20260712T232208_P05023_N_F_J_001","NISAR_L2_PR_GCOV_026_069_A_014_4005_DHDH_A_20260724T232133_20260724T232208_P05023_N_F_J_001"],"contextual_land_cover":null,"distance_to_water_m":null,"context_status":"NOT_AVAILABLE","reference_validated":false}},{"type":"Feature","geometry":{"type":"Polygon","coordinates":[[[90.96815,25.1508],[90.96815,25.15071],[90.96805,25.15071],[90.96806,25.15044],[90.96826,25.15044],[90.96826,25.15017],[90.96866,25.15018],[90.96866,25.15027],[90.96885,25.15027],[90.96885,25.15018],[90.96895,25.15018],[90.96896,25.15009],[90.96886,25.15009],[90.96886,25.15],[90.96906,25.15],[90.96906,25.14991],[90.96926,25.14992],[90.96925,25.1501],[90.96945,25.1501],[90.96945,25.15019],[90.96935,25.15019],[90.96935,25.15028],[90.96955,25.15028],[90.96955,25.15037],[90.96945,25.15037],[90.96945,25.15046],[90.96925,25.15046],[90.96925,25.15055],[90.96915,25.15055],[90.96915,25.15037],[90.96895,25.15036],[90.96895,25.15045],[90.96905,25.15045],[90.96905,25.15054],[90.96885,25.15054],[90.96885,25.15072],[90.96855,25.15072],[90.96855,25.15081],[90.96815,25.1508]],[[90.96825,25.15071],[90.96835,25.15072],[90.96835,25.15054],[90.96825,25.15053],[90.96825,25.15071]],[[90.96845,25.15063],[90.96865,25.15063],[90.96865,25.15054],[90.96855,25.15054],[90.96856,25.15027],[90.96836,25.15026],[90.96835,25.15045],[90.96845,25.15045],[90.96845,25.15063]],[[90.96865,25.15045],[90.96885,25.15045],[90.96885,25.15036],[90.96865,25.15036],[90.96865,25.15045]],[[90.96915,25.15037],[90.96925,25.15037],[90.96925,25.15028],[90.96915,25.15028],[90.96915,25.15037]],[[90.96895,25.15027],[90.96905,25.15027],[90.96905,25.15018],[90.96895,25.15018],[90.96895,25.15027]],[[90.96915,25.15019],[90.96925,25.15019],[90.96925,25.1501],[90.96915,25.15009],[90.96915,25.15019]]]},"properties":{"id":"wetland_patch_00213d8c780b","date":"2026-08-17","area_km2":0.006,"pixel_count":60,"classification":"OPEN_WATER","interpretation_label":"HH darkening candidate","mean_delta_db":-4.640494966506958,"median_delta_db":-4.509353160858154,"hh_before":-12.766766516367595,"hh_after":-17.407261482874553,"hv_before":-19.978604634602863,"hv_after":-21.23619206746419,"delta_hh":-4.640494966506958,"delta_hv":-1.2575874328613281,"valid_fraction":0.9933333333333333,"valid_fraction_scope":"region bounding box, all four channels","vegetated_fraction":0.0,"quality_status":"PASS","spatial_status":"PARTIAL","temporal_status":"PASS","temporal_overlap_fraction":0.6833333333333333,"threshold_stability":"SENSITIVE","threshold_variation_fraction":0.23404255319148937,"evidence_state":"MODERATE","centroid":[25.15039508273007,90.96876877257154],"data_source":"NISAR","evidence_method":"Rule consistency only; no accuracy estimate or independent reference validation.","baseline_method":"PER_PIXEL_MEDIAN","baseline_observation_count":4,"baseline_observation_dates":["2026-06-18","2026-06-30","2026-07-12","2026-07-24"],"baseline_hh_temporal_mad_db":1.015869140625,"baseline_scene_names":["NISAR_L2_PR_GCOV_023_069_A_014_4005_DHDH_A_20260618T232135_20260618T232210_P05023_N_F_J_001","NISAR_L2_PR_GCOV_024_069_A_014_4005_DHDH_A_20260630T232134_20260630T232209_P05023_N_F_J_001","NISAR_L2_PR_GCOV_025_069_A_014_4005_DHDH_A_20260712T232134_20260712T232208_P05023_N_F_J_001","NISAR_L2_PR_GCOV_026_069_A_014_4005_DHDH_A_20260724T232133_20260724T232208_P05023_N_F_J_001"],"contextual_land_cover":null,"distance_to_water_m":null,"context_status":"NOT_AVAILABLE","reference_validated":false}},{"type":"Feature","geometry":{"type":"Polygon","coordinates":[[[91.00563,25.13308],[91.00564,25.13281],[91.00534,25.1328],[91.00534,25.13271],[91.00544,25.13271],[91.00544,25.13244],[91.00534,25.13244],[91.00535,25.13235],[91.00544,25.13235],[91.00545,25.13226],[91.00535,25.13226],[91.00535,25.13217],[91.00555,25.13217],[91.00554,25.13235],[91.00564,25.13236],[91.00564,25.13245],[91.00574,25.13245],[91.00574,25.13254],[91.00594,25.13254],[91.00594,25.13236],[91.00604,25.13236],[91.00604,25.13254],[91.00614,25.13254],[91.00613,25.13263],[91.00633,25.13264],[91.00633,25.13255],[91.00643,25.13255],[91.00643,25.13264],[91.00653,25.13264],[91.00653,25.13255],[91.00713,25.13256],[91.00712,25.13274],[91.00703,25.13274],[91.00702,25.13283],[91.00653,25.13282],[91.00653,25.13291],[91.00663,25.13291],[91.00662,25.133],[91.00633,25.133],[91.00633,25.13291],[91.00623,25.13291],[91.00623,25.13281],[91.00633,25.13282],[91.00633,25.13273],[91.00574,25.13272],[91.00573,25.13308],[91.00563,25.13308]],[[91.00643,25.13282],[91.00653,25.13282],[91.00653,25.13273],[91.00643,25.13273],[91.00643,25.13282]]]},"properties":{"id":"wetland_patch_dfa329554ae3","date":"2026-08-17","area_km2":0.0061,"pixel_count":61,"classification":"OPEN_WATER","interpretation_label":"HH darkening candidate","mean_delta_db":-5.120455138995999,"median_delta_db":-4.8314008712768555,"hh_before":-6.0612965519310995,"hh_after":-11.181751690927099,"hv_before":-15.737266595246362,"hv_after":-18.254424079519804,"delta_hh":-5.120455138995999,"delta_hv":-2.5171574842734414,"valid_fraction":1.0,"valid_fraction_scope":"region bounding box, all four channels","vegetated_fraction":0.0,"quality_status":"PASS","spatial_status":"PARTIAL","temporal_status":"PARTIAL","temporal_overlap_fraction":0.0,"threshold_stability":"SENSITIVE","threshold_variation_fraction":0.23076923076923078,"evidence_state":"UNCERTAIN","centroid":[25.132657493863427,91.00613633065475],"data_source":"NISAR","evidence_method":"Rule consistency only; no accuracy estimate or independent reference validation.","baseline_method":"PER_PIXEL_MEDIAN","baseline_observation_count":4,"baseline_observation_dates":["2026-06-18","2026-06-30","2026-07-12","2026-07-24"],"baseline_hh_temporal_mad_db":1.015869140625,"baseline_scene_names":["NISAR_L2_PR_GCOV_023_069_A_014_4005_DHDH_A_20260618T232135_20260618T232210_P05023_N_F_J_001","NISAR_L2_PR_GCOV_024_069_A_014_4005_DHDH_A_20260630T232134_20260630T232209_P05023_N_F_J_001","NISAR_L2_PR_GCOV_025_069_A_014_4005_DHDH_A_20260712T232134_20260712T232208_P05023_N_F_J_001","NISAR_L2_PR_GCOV_026_069_A_014_4005_DHDH_A_20260724T232133_20260724T232208_P05023_N_F_J_001"],"contextual_land_cover":null,"distance_to_water_m":null,"context_status":"NOT_AVAILABLE","reference_validated":false}},{"type":"Feature","geometry":{"type":"Polygon","coordinates":[[[91.01061,25.12592],[91.01061,25.12583],[91.01051,25.12583],[91.01051,25.12565],[91.01021,25.12565],[91.01021,25.12574],[91.01031,25.12574],[91.01031,25.12583],[91.00991,25.12582],[91.00992,25.12564],[91.01002,25.12564],[91.01001,25.12573],[91.01011,25.12574],[91.01012,25.12546],[91.01002,25.12546],[91.01002,25.12555],[91.00992,25.12555],[91.00992,25.12546],[91.00982,25.12546],[91.00982,25.12537],[91.00992,25.12537],[91.00993,25.1251],[91.01002,25.1251],[91.01002,25.12519],[91.01012,25.12519],[91.01012,25.1251],[91.01022,25.1251],[91.01022,25.1252],[91.01032,25.1252],[91.01032,25.12502],[91.01042,25.12502],[91.01042,25.12511],[91.01062,25.12511],[91.01062,25.12502],[91.01072,25.12502],[91.01072,25.12529],[91.01081,25.12529],[91.01081,25.12547],[91.01071,25.12547],[91.01071,25.12556],[91.01061,25.12556],[91.01061,25.12565],[91.01071,25.12565],[91.01071,25.12592],[91.01061,25.12592]],[[91.01032,25.12547],[91.01051,25.12547],[91.01052,25.12538],[91.01032,25.12538],[91.01032,25.12547]],[[91.01012,25.12537],[91.01032,25.12538],[91.01032,25.12529],[91.01012,25.12528],[91.01012,25.12537]]]},"properties":{"id":"wetland_patch_17bd5234e4fa","date":"2026-08-17","area_km2":0.0054,"pixel_count":54,"classification":"OPEN_WATER","interpretation_label":"HH darkening candidate","mean_delta_db":-4.415083832210964,"median_delta_db":-3.9739060401916504,"hh_before":-15.229195329878065,"hh_after":-19.64427916208903,"hv_before":-23.665192462779856,"hv_after":-23.71040157035545,"delta_hh":-4.415083832210964,"delta_hv":-0.04520910757559317,"valid_fraction":1.0,"valid_fraction_scope":"region bounding box, all four channels","vegetated_fraction":0.0,"quality_status":"PASS","spatial_status":"PASS","temporal_status":"PARTIAL","temporal_overlap_fraction":0.0,"threshold_stability":"SENSITIVE","threshold_variation_fraction":0.3333333333333333,"evidence_state":"MODERATE","centroid":[25.12543771853795,91.01035162043284],"data_source":"NISAR","evidence_method":"Rule consistency only; no accuracy estimate or independent reference validation.","baseline_method":"PER_PIXEL_MEDIAN","baseline_observation_count":4,"baseline_observation_dates":["2026-06-18","2026-06-30","2026-07-12","2026-07-24"],"baseline_hh_temporal_mad_db":1.015869140625,"baseline_scene_names":["NISAR_L2_PR_GCOV_023_069_A_014_4005_DHDH_A_20260618T232135_20260618T232210_P05023_N_F_J_001","NISAR_L2_PR_GCOV_024_069_A_014_4005_DHDH_A_20260630T232134_20260630T232209_P05023_N_F_J_001","NISAR_L2_PR_GCOV_025_069_A_014_4005_DHDH_A_20260712T232134_20260712T232208_P05023_N_F_J_001","NISAR_L2_PR_GCOV_026_069_A_014_4005_DHDH_A_20260724T232133_20260724T232208_P05023_N_F_J_001"],"contextual_land_cover":null,"distance_to_water_m":null,"context_status":"NOT_AVAILABLE","reference_validated":false}},{"type":"Feature","geometry":{"type":"Polygon","coordinates":[[[90.99541,25.11552],[90.99541,25.11534],[90.99531,25.11533],[90.99531,25.11543],[90.99521,25.11542],[90.99521,25.11533],[90.99481,25.11533],[90.99482,25.11524],[90.99472,25.11524],[90.99472,25.11515],[90.99452,25.11514],[90.99452,25.11523],[90.99442,25.11523],[90.99442,25.11532],[90.99412,25.11532],[90.99412,25.11541],[90.99382,25.11541],[90.99382,25.11531],[90.99372,25.11531],[90.99372,25.1154],[90.99352,25.1154],[90.99353,25.11531],[90.99343,25.11531],[90.99343,25.11513],[90.99323,25.11513],[90.99323,25.11504],[90.99313,25.11503],[90.99313,25.11512],[90.99303,25.11512],[90.99304,25.11494],[90.99294,25.11494],[90.99293,25.11521],[90.99273,25.11521],[90.99274,25.11503],[90.99254,25.11503],[90.99254,25.11494],[90.99244,25.11494],[90.99245,25.11466],[90.99235,25.11466],[90.99234,25.11475],[90.99225,25.11475],[90.99225,25.11466],[90.99215,25.11466],[90.99215,25.11457],[90.99225,25.11457],[90.99225,25.11448],[90.99215,25.11448],[90.99216,25.11412],[90.99206,25.11412],[90.99206,25.11403],[90.99226,25.11403],[90.99226,25.11394],[90.99236,25.11394],[90.99236,25.11385],[90.99256,25.11385],[90.99256,25.11376],[90.99266,25.11376],[90.99266,25.11367],[90.99286,25.11368],[90.99286,25.11359],[90.99316,25.11359],[90.99316,25.11368],[90.99325,25.11368],[90.99326,25.1135],[90.99336,25.1135],[90.99336,25.11359],[90.99345,25.11359],[90.99345,25.11368],[90.99395,25.11369],[90.99395,25.11378],[90.99405,25.11378],[90.99405,25.11369],[90.99415,25.11369],[90.99415,25.11378],[90.99434,25.11379],[90.99434,25.11388],[90.99444,25.11388],[90.99444,25.11397],[90.99454,25.11397],[90.99454,25.11406],[90.99464,25.11406],[90.99463,25.11424],[90.99473,25.11424],[90.99473,25.11415],[90.99493,25.11416],[90.99493,25.11434],[90.99483,25.11434],[90.99483,25.11443],[90.99503,25.11443],[90.99502,25.1147],[90.99492,25.1147],[90.99492,25.11479],[90.99512,25.11479],[90.99512,25.11461],[90.99532,25.11461],[90.99532,25.1147],[90.99542,25.1147],[90.99542,25.11489],[90.99552,25.11489],[90.99551,25.11498],[90.99542,25.11498],[90.99541,25.11507],[90.99571,25.11507],[90.99571,25.11516],[90.99561,25.11516],[90.99561,25.11525],[90.99551,25.11525],[90.99551,25.11534],[90.99571,25.11534],[90.99571,25.11543],[90.99551,25.11543],[90.99551,25.11552],[90.99541,25.11552]],[[90.99373,25.11522],[90.99382,25.11522],[90.99383,25.11513],[90.99373,25.11513],[90.99373,25.11522]],[[90.99512,25.11506],[90.99531,25.11506],[90.99532,25.11488],[90.99522,25.11488],[90.99522,25.11497],[90.99512,25.11497],[90.99512,25.11506]],[[90.99353,25.11477],[90.99393,25.11477],[90.99393,25.11468],[90.99403,25.11469],[90.99404,25.11423],[90.99394,25.11423],[90.99394,25.11414],[90.99384,25.11414],[90.99384,25.11405],[90.99365,25.11405],[90.99364,25.11432],[90.99344,25.11432],[90.99344,25.11423],[90.99295,25.11422],[90.99295,25.11431],[90.99305,25.11431],[90.99304,25.11449],[90.99314,25.11449],[90.99314,25.11458],[90.99344,25.11459],[90.99344,25.11468],[90.99354,25.11468],[90.99353,25.11477]],[[90.99443,25.11451],[90.99453,25.11451],[90.99453,25.11442],[90.99443,25.11442],[90.99443,25.11451]],[[90.99245,25.1143],[90.99255,25.1143],[90.99255,25.11421],[90.99245,25.11421],[90.99245,25.1143]],[[90.99414,25.11433],[90.99424,25.11433],[90.99424,25.11424],[90.99414,25.11424],[90.99414,25.11433]],[[90.99255,25.11421],[90.99265,25.11422],[90.99266,25.11394],[90.99246,25.11394],[90.99246,25.11403],[90.99236,25.11403],[90.99236,25.11412],[90.99255,25.11412],[90.99255,25.11421]],[[90.99434,25.11424],[90.99444,25.11424],[90.99444,25.11415],[90.99434,25.11415],[90.99434,25.11424]],[[90.99275,25.11413],[90.99295,25.11413],[90.99295,25.11404],[90.99275,25.11404],[90.99275,25.11413]],[[90.99295,25.11404],[90.99305,25.11404],[90.99305,25.11395],[90.99295,25.11395],[90.99295,25.11404]],[[90.99275,25.11395],[90.99285,25.11395],[90.99286,25.11386],[90.99276,25.11386],[90.99275,25.11395]],[[90.99296,25.11377],[90.99315,25.11377],[90.99316,25.11368],[90.99296,25.11368],[90.99296,25.11377]]]},"properties":{"id":"wetland_patch_c97ec9c3caab","date":"2026-08-17","area_km2":0.04,"pixel_count":400,"classification":"OPEN_WATER","interpretation_label":"HH darkening candidate","mean_delta_db":-6.981719388961792,"median_delta_db":-6.807002067565918,"hh_before":-10.810742592811584,"hh_after":-17.792461981773375,"hv_before":-19.23453796863556,"hv_after":-23.461019039154053,"delta_hh":-6.981719388961792,"delta_hv":-4.226481070518494,"valid_fraction":1.0,"valid_fraction_scope":"region bounding box, all four channels","vegetated_fraction":0.0,"quality_status":"PASS","spatial_status":"PARTIAL","temporal_status":"PARTIAL","temporal_overlap_fraction":0.26,"threshold_stability":"STABLE","threshold_variation_fraction":0.09557109557109557,"evidence_state":"MODERATE","centroid":[25.11456917690933,90.99379189957571],"data_source":"NISAR","evidence_method":"Rule consistency only; no accuracy estimate or independent reference validation.","baseline_method":"PER_PIXEL_MEDIAN","baseline_observation_count":4,"baseline_observation_dates":["2026-06-18","2026-06-30","2026-07-12","2026-07-24"],"baseline_hh_temporal_mad_db":1.015869140625,"baseline_scene_names":["NISAR_L2_PR_GCOV_023_069_A_014_4005_DHDH_A_20260618T232135_20260618T232210_P05023_N_F_J_001","NISAR_L2_PR_GCOV_024_069_A_014_4005_DHDH_A_20260630T232134_20260630T232209_P05023_N_F_J_001","NISAR_L2_PR_GCOV_025_069_A_014_4005_DHDH_A_20260712T232134_20260712T232208_P05023_N_F_J_001","NISAR_L2_PR_GCOV_026_069_A_014_4005_DHDH_A_20260724T232133_20260724T232208_P05023_N_F_J_001"],"contextual_land_cover":null,"distance_to_water_m":null,"context_status":"NOT_AVAILABLE","reference_validated":false}},{"type":"Feature","geometry":{"type":"Polygon","coordinates":[[[91.0671,25.11502],[91.06711,25.11475],[91.06721,25.11476],[91.06721,25.11457],[91.06701,25.11457],[91.06701,25.1143],[91.06682,25.1143],[91.06681,25.11448],[91.06691,25.11448],[91.06691,25.11457],[91.06671,25.11457],[91.06671,25.11466],[91.06661,25.11466],[91.06661,25.11484],[91.06651,25.11484],[91.06651,25.11466],[91.06631,25.11465],[91.06632,25.11456],[91.06622,25.11456],[91.06622,25.11447],[91.06612,25.11447],[91.06612,25.11456],[91.06602,25.11456],[91.06602,25.11465],[91.06582,25.11465],[91.06582,25.11456],[91.06592,25.11456],[91.06592,25.11447],[91.06572,25.11447],[91.06572,25.11437],[91.06563,25.11437],[91.06563,25.11428],[91.06543,25.11428],[91.06543,25.11419],[91.06563,25.11419],[91.06563,25.1141],[91.06543,25.1141],[91.06543,25.11401],[91.06603,25.11402],[91.06603,25.11375],[91.06613,25.11375],[91.06613,25.11366],[91.06623,25.11366],[91.06623,25.11375],[91.06643,25.11375],[91.06643,25.11384],[91.06633,25.11384],[91.06633,25.11393],[91.06662,25.11394],[91.06662,25.11403],[91.06692,25.11403],[91.06692,25.11394],[91.06722,25.11394],[91.06722,25.11403],[91.06712,25.11403],[91.06712,25.11412],[91.06722,25.11412],[91.06721,25.11421],[91.06741,25.11422],[91.06741,25.11431],[91.06751,25.11431],[91.06751,25.11449],[91.0679,25.11449],[91.0679,25.11458],[91.0678,25.11458],[91.0678,25.11467],[91.0677,25.11467],[91.0677,25.11476],[91.0675,25.11476],[91.0675,25.11485],[91.0673,25.11485],[91.0673,25.11503],[91.0671,25.11502]],[[91.06731,25.11467],[91.0676,25.11467],[91.0676,25.11458],[91.06731,25.11458],[91.06731,25.11467]],[[91.06632,25.11456],[91.06651,25.11457],[91.06652,25.11429],[91.06642,25.11429],[91.06642,25.11411],[91.06632,25.11411],[91.06632,25.11456]],[[91.06721,25.11457],[91.06731,25.11458],[91.06731,25.11449],[91.06721,25.11448],[91.06721,25.11457]],[[91.06592,25.11447],[91.06602,25.11447],[91.06602,25.11438],[91.06612,25.11438],[91.06612,25.11429],[91.06582,25.11429],[91.06582,25.11438],[91.06592,25.11438],[91.06592,25.11447]],[[91.06612,25.11429],[91.06622,25.11429],[91.06622,25.1142],[91.06612,25.1142],[91.06612,25.11429]],[[91.06711,25.1143],[91.06721,25.1143],[91.06721,25.11421],[91.06711,25.11421],[91.06711,25.1143]],[[91.06573,25.11419],[91.06583,25.1142],[91.06583,25.11411],[91.06573,25.1141],[91.06573,25.11419]],[[91.06593,25.1142],[91.06602,25.1142],[91.06603,25.11411],[91.06593,25.11411],[91.06593,25.1142]],[[91.06612,25.11411],[91.06622,25.11411],[91.06623,25.11402],[91.06613,25.11402],[91.06612,25.11411]],[[91.06642,25.11411],[91.06652,25.11411],[91.06652,25.11402],[91.06642,25.11402],[91.06642,25.11411]]]},"properties":{"id":"wetland_patch_46dfaf28e23e","date":"2026-08-17","area_km2":0.0126,"pixel_count":126,"classification":"OPEN_WATER","interpretation_label":"HH darkening candidate","mean_delta_db":-4.5518159487890815,"median_delta_db":-4.246482849121094,"hh_before":-16.872109784020317,"hh_after":-21.4239257328094,"hv_before":-24.60324570489308,"hv_after":-24.91963391076951,"delta_hh":-4.5518159487890815,"delta_hv":-0.3163882058764261,"valid_fraction":1.0,"valid_fraction_scope":"region bounding box, all four channels","vegetated_fraction":0.0,"quality_status":"PASS","spatial_status":"PARTIAL","temporal_status":"PARTIAL","temporal_overlap_fraction":0.0,"threshold_stability":"SENSITIVE","threshold_variation_fraction":0.265625,"evidence_state":"UNCERTAIN","centroid":[25.114323760771875,91.06664098213389],"data_source":"NISAR","evidence_method":"Rule consistency only; no accuracy estimate or independent reference validation.","baseline_method":"PER_PIXEL_MEDIAN","baseline_observation_count":4,"baseline_observation_dates":["2026-06-18","2026-06-30","2026-07-12","2026-07-24"],"baseline_hh_temporal_mad_db":1.015869140625,"baseline_scene_names":["NISAR_L2_PR_GCOV_023_069_A_014_4005_DHDH_A_20260618T232135_20260618T232210_P05023_N_F_J_001","NISAR_L2_PR_GCOV_024_069_A_014_4005_DHDH_A_20260630T232134_20260630T232209_P05023_N_F_J_001","NISAR_L2_PR_GCOV_025_069_A_014_4005_DHDH_A_20260712T232134_20260712T232208_P05023_N_F_J_001","NISAR_L2_PR_GCOV_026_069_A_014_4005_DHDH_A_20260724T232133_20260724T232208_P05023_N_F_J_001"],"contextual_land_cover":null,"distance_to_water_m":null,"context_status":"NOT_AVAILABLE","reference_validated":false}},{"type":"Feature","geometry":{"type":"Polygon","coordinates":[[[91.0201,25.10935],[91.0201,25.10926],[91.0199,25.10926],[91.0199,25.10917],[91.02,25.10917],[91.02,25.10908],[91.0199,25.10908],[91.0199,25.10899],[91.02,25.10899],[91.02,25.1089],[91.01981,25.10889],[91.01981,25.1088],[91.01961,25.1088],[91.01961,25.10889],[91.01911,25.10888],[91.01911,25.10879],[91.01951,25.1088],[91.01951,25.10871],[91.01941,25.10871],[91.01942,25.10835],[91.01932,25.10835],[91.01932,25.10853],[91.01922,25.10852],[91.01922,25.10816],[91.01932,25.10816],[91.01932,25.10798],[91.01952,25.10799],[91.01953,25.10781],[91.01972,25.10781],[91.01973,25.10772],[91.01982,25.10772],[91.01983,25.10754],[91.01993,25.10754],[91.01992,25.10772],[91.02002,25.10772],[91.02002,25.10781],[91.01992,25.10781],[91.01992,25.1079],[91.01982,25.1079],[91.01982,25.10808],[91.01972,25.10808],[91.01972,25.10826],[91.01962,25.10826],[91.01962,25.10835],[91.01972,25.10835],[91.01971,25.10862],[91.01961,25.10862],[91.01961,25.10871],[91.01991,25.10871],[91.01991,25.10862],[91.01981,25.10862],[91.01981,25.10844],[91.01991,25.10844],[91.01991,25.10853],[91.02011,25.10854],[91.02011,25.10872],[91.02001,25.10872],[91.02001,25.10881],[91.0202,25.10881],[91.0202,25.1089],[91.0205,25.1089],[91.0205,25.10908],[91.0204,25.10908],[91.0204,25.10899],[91.0202,25.10899],[91.0202,25.10908],[91.0203,25.10908],[91.0203,25.10926],[91.02039,25.10926],[91.02039,25.10935],[91.0201,25.10935]],[[91.01951,25.10853],[91.01961,25.10853],[91.01962,25.10835],[91.01952,25.10835],[91.01951,25.10853]],[[91.01942,25.10826],[91.01952,25.10826],[91.01952,25.10808],[91.01942,25.10808],[91.01942,25.10826]]]},"properties":{"id":"wetland_patch_c50f5249809a","date":"2026-08-17","area_km2":0.0078,"pixel_count":78,"classification":"OPEN_WATER","interpretation_label":"HH darkening candidate","mean_delta_db":-4.426201563615066,"median_delta_db":-4.278986930847168,"hh_before":-16.149582728361473,"hh_after":-20.575784291976536,"hv_before":-24.606011268420097,"hv_after":-24.187579521766075,"delta_hh":-4.426201563615066,"delta_hv":0.41843174665402144,"valid_fraction":1.0,"valid_fraction_scope":"region bounding box, all four channels","vegetated_fraction":0.0,"quality_status":"PASS","spatial_status":"PARTIAL","temporal_status":"PARTIAL","temporal_overlap_fraction":0.0,"threshold_stability":"SENSITIVE","threshold_variation_fraction":0.2706766917293233,"evidence_state":"UNCERTAIN","centroid":[25.108539094031755,91.01977681008952],"data_source":"NISAR","evidence_method":"Rule consistency only; no accuracy estimate or independent reference validation.","baseline_method":"PER_PIXEL_MEDIAN","baseline_observation_count":4,"baseline_observation_dates":["2026-06-18","2026-06-30","2026-07-12","2026-07-24"],"baseline_hh_temporal_mad_db":1.015869140625,"baseline_scene_names":["NISAR_L2_PR_GCOV_023_069_A_014_4005_DHDH_A_20260618T232135_20260618T232210_P05023_N_F_J_001","NISAR_L2_PR_GCOV_024_069_A_014_4005_DHDH_A_20260630T232134_20260630T232209_P05023_N_F_J_001","NISAR_L2_PR_GCOV_025_069_A_014_4005_DHDH_A_20260712T232134_20260712T232208_P05023_N_F_J_001","NISAR_L2_PR_GCOV_026_069_A_014_4005_DHDH_A_20260724T232133_20260724T232208_P05023_N_F_J_001"],"contextual_land_cover":null,"distance_to_water_m":null,"context_status":"NOT_AVAILABLE","reference_validated":false}},{"type":"Feature","geometry":{"type":"Polygon","coordinates":[[[91.05131,25.10398],[91.05131,25.10389],[91.05122,25.10389],[91.05122,25.1038],[91.05112,25.1038],[91.05112,25.10371],[91.05102,25.10371],[91.05102,25.10389],[91.05082,25.10389],[91.05082,25.10371],[91.05072,25.10371],[91.05073,25.10353],[91.05102,25.10353],[91.05102,25.10362],[91.05132,25.10362],[91.05132,25.10353],[91.05112,25.10353],[91.05113,25.10335],[91.05103,25.10335],[91.05102,25.10344],[91.05083,25.10344],[91.05083,25.10317],[91.05073,25.10316],[91.05073,25.10298],[91.05093,25.10299],[91.05093,25.10308],[91.05103,25.10308],[91.05103,25.10317],[91.05123,25.10317],[91.05123,25.10326],[91.05152,25.10327],[91.05152,25.10336],[91.05162,25.10336],[91.05162,25.10345],[91.05172,25.10345],[91.05171,25.10372],[91.05181,25.10372],[91.05181,25.1039],[91.05171,25.1039],[91.05171,25.10399],[91.05161,25.10399],[91.05162,25.10363],[91.05152,25.10363],[91.05151,25.10399],[91.05131,25.10398]],[[91.05132,25.10371],[91.05142,25.10372],[91.05142,25.10363],[91.05132,25.10362],[91.05132,25.10371]],[[91.05093,25.10326],[91.05103,25.10326],[91.05103,25.10317],[91.05093,25.10317],[91.05093,25.10326]]]},"properties":{"id":"wetland_patch_29abe75a192a","date":"2026-08-17","area_km2":0.0061,"pixel_count":61,"classification":"OPEN_WATER","interpretation_label":"HH darkening candidate","mean_delta_db":-4.820936062296883,"median_delta_db":-4.330538749694824,"hh_before":-16.201206645027536,"hh_after":-21.02214270732442,"hv_before":-24.639071198760487,"hv_after":-24.89266845828197,"delta_hh":-4.820936062296883,"delta_hv":-0.2535972595214844,"valid_fraction":1.0,"valid_fraction_scope":"region bounding box, all four channels","vegetated_fraction":0.0,"quality_status":"PASS","spatial_status":"PASS","temporal_status":"PARTIAL","temporal_overlap_fraction":0.0,"threshold_stability":"SENSITIVE","threshold_variation_fraction":0.27848101265822783,"evidence_state":"MODERATE","centroid":[25.103543566013332,91.05123337270481],"data_source":"NISAR","evidence_method":"Rule consistency only; no accuracy estimate or independent reference validation.","baseline_method":"PER_PIXEL_MEDIAN","baseline_observation_count":4,"baseline_observation_dates":["2026-06-18","2026-06-30","2026-07-12","2026-07-24"],"baseline_hh_temporal_mad_db":1.015869140625,"baseline_scene_names":["NISAR_L2_PR_GCOV_023_069_A_014_4005_DHDH_A_20260618T232135_20260618T232210_P05023_N_F_J_001","NISAR_L2_PR_GCOV_024_069_A_014_4005_DHDH_A_20260630T232134_20260630T232209_P05023_N_F_J_001","NISAR_L2_PR_GCOV_025_069_A_014_4005_DHDH_A_20260712T232134_20260712T232208_P05023_N_F_J_001","NISAR_L2_PR_GCOV_026_069_A_014_4005_DHDH_A_20260724T232133_20260724T232208_P05023_N_F_J_001"],"contextual_land_cover":null,"distance_to_water_m":null,"context_status":"NOT_AVAILABLE","reference_validated":false}},{"type":"Feature","geometry":{"type":"Polygon","coordinates":[[[91.055,25.10277],[91.05501,25.1025],[91.05481,25.1025],[91.05481,25.10259],[91.05461,25.10258],[91.05461,25.1024],[91.05481,25.10241],[91.05481,25.10232],[91.05501,25.10232],[91.05501,25.10223],[91.05511,25.10223],[91.05511,25.10214],[91.05491,25.10214],[91.05491,25.10205],[91.05471,25.10204],[91.05471,25.10213],[91.05481,25.10214],[91.05481,25.10223],[91.05471,25.10222],[91.05471,25.10231],[91.05451,25.10231],[91.05451,25.10258],[91.05441,25.10258],[91.05441,25.10249],[91.05431,25.10249],[91.05431,25.1024],[91.05441,25.1024],[91.05441,25.10222],[91.05461,25.10222],[91.05461,25.10213],[91.05442,25.10213],[91.05442,25.10168],[91.05452,25.10168],[91.05452,25.10177],[91.05462,25.10177],[91.05462,25.10168],[91.05482,25.10168],[91.05482,25.10177],[91.05472,25.10177],[91.05472,25.10186],[91.05462,25.10186],[91.05462,25.10195],[91.05501,25.10196],[91.05502,25.10187],[91.05511,25.10187],[91.05512,25.10178],[91.05521,25.10178],[91.05521,25.10187],[91.05531,25.10187],[91.05531,25.10205],[91.05541,25.10205],[91.05541,25.10214],[91.05531,25.10214],[91.05531,25.10223],[91.05541,25.10223],[91.0554,25.10232],[91.0556,25.10233],[91.0556,25.10242],[91.0557,25.10242],[91.0557,25.10251],[91.0555,25.10251],[91.0555,25.10241],[91.0554,25.10241],[91.0554,25.1025],[91.0553,25.1025],[91.05531,25.10232],[91.05521,25.10232],[91.0552,25.10259],[91.0554,25.10259],[91.0554,25.10268],[91.0551,25.10268],[91.0551,25.10277],[91.055,25.10277]],[[91.05501,25.10205],[91.05511,25.10205],[91.05511,25.10196],[91.05501,25.10196],[91.05501,25.10205]]]},"properties":{"id":"wetland_patch_f930602bed95","date":"2026-08-17","area_km2":0.0068,"pixel_count":68,"classification":"OPEN_WATER","interpretation_label":"HH darkening candidate","mean_delta_db":-4.279932330636417,"median_delta_db":-3.9730005264282227,"hh_before":-16.025195542503806,"hh_after":-20.305127873140222,"hv_before":-24.82765329585356,"hv_after":-24.252135781680835,"delta_hh":-4.279932330636417,"delta_hv":0.5755175141727223,"valid_fraction":1.0,"valid_fraction_scope":"region bounding box, all four channels","vegetated_fraction":0.0,"quality_status":"PASS","spatial_status":"PARTIAL","temporal_status":"PARTIAL","temporal_overlap_fraction":0.0,"threshold_stability":"SENSITIVE","threshold_variation_fraction":0.24210526315789474,"evidence_state":"UNCERTAIN","centroid":[25.102224261776616,91.05493374698554],"data_source":"NISAR","evidence_method":"Rule consistency only; no accuracy estimate or independent reference validation.","baseline_method":"PER_PIXEL_MEDIAN","baseline_observation_count":4,"baseline_observation_dates":["2026-06-18","2026-06-30","2026-07-12","2026-07-24"],"baseline_hh_temporal_mad_db":1.015869140625,"baseline_scene_names":["NISAR_L2_PR_GCOV_023_069_A_014_4005_DHDH_A_20260618T232135_20260618T232210_P05023_N_F_J_001","NISAR_L2_PR_GCOV_024_069_A_014_4005_DHDH_A_20260630T232134_20260630T232209_P05023_N_F_J_001","NISAR_L2_PR_GCOV_025_069_A_014_4005_DHDH_A_20260712T232134_20260712T232208_P05023_N_F_J_001","NISAR_L2_PR_GCOV_026_069_A_014_4005_DHDH_A_20260724T232133_20260724T232208_P05023_N_F_J_001"],"contextual_land_cover":null,"distance_to_water_m":null,"context_status":"NOT_AVAILABLE","reference_validated":false}}]}