{"type":"FeatureCollection","features":[{"type":"Feature","geometry":{"type":"Polygon","coordinates":[[[91.11036,25.09295],[91.10912,25.09119],[91.10852,25.09048],[91.10791,25.09055],[91.10742,25.09068],[91.10712,25.09068],[91.10684,25.09068],[91.10607,25.09051],[91.10594,25.0902],[91.10593,25.09019],[91.10564,25.08983],[91.10524,25.08949],[91.10488,25.08938],[91.10479,25.08935],[91.10475,25.08934],[91.10399,25.08922],[91.1039,25.08924],[91.10378,25.08928],[91.10348,25.08936],[91.10313,25.08946],[91.10251,25.08963],[91.10195,25.09003],[91.10112,25.09028],[91.10025,25.0906],[91.09985,25.09094],[91.09975,25.09102],[91.09949,25.09155],[91.09899,25.09194],[91.09877,25.09201],[91.09799,25.09186],[91.09733,25.09184],[91.09656,25.09167],[91.0962,25.0917],[91.09555,25.09176],[91.09463,25.09207],[91.09419,25.09222],[91.09364,25.09229],[91.09257,25.09243],[91.09166,25.09278],[91.09059,25.09254],[91.09034,25.09253],[91.08956,25.09251],[91.08832,25.09265],[91.08822,25.09266],[91.08763,25.09292],[91.08685,25.09357],[91.08591,25.09403],[91.08515,25.0943],[91.08484,25.09451],[91.08479,25.09454],[91.08492,25.09555],[91.08492,25.09648],[91.08515,25.09757],[91.08466,25.09888],[91.08425,25.09952],[91.08373,25.10016],[91.08263,25.1002],[91.08261,25.10121],[91.08251,25.10148],[91.08226,25.10191],[91.0815,25.10265],[91.08056,25.10402],[91.07938,25.10525],[91.07642,25.107],[91.07436,25.10793],[91.07185,25.10896],[91.0696,25.11019],[91.0687,25.111],[91.06797,25.11146],[91.06766,25.11192],[91.06734,25.11221],[91.06714,25.1124],[91.06698,25.11245],[91.06632,25.11268],[91.06612,25.11275],[91.06543,25.11282],[91.06423,25.11282],[91.06304,25.11269],[91.06201,25.11173],[91.06157,25.10837],[91.0601,25.10447],[91.05961,25.10336],[91.0592,25.10195],[91.05871,25.10082],[91.05835,25.10041],[91.05778,25.10051],[91.05586,25.10106],[91.05372,25.10183],[91.05321,25.102],[91.05163,25.1025],[91.04954,25.10254],[91.0483,25.10274],[91.04724,25.10268],[91.04702,25.10266],[91.04581,25.10274],[91.04455,25.10303],[91.04341,25.10368],[91.04213,25.10408],[91.04046,25.10431],[91.03883,25.10476],[91.0384,25.10534],[91.03681,25.10585],[91.03639,25.1062],[91.03563,25.10651],[91.03461,25.10669],[91.03388,25.10695],[91.03313,25.1072],[91.03249,25.10738],[91.03209,25.1071],[91.0319,25.10668],[91.03187,25.1066],[91.03115,25.10624],[91.02972,25.10562],[91.02817,25.10516],[91.02645,25.10411],[91.026,25.10375],[91.02415,25.10228],[91.02254,25.10129],[91.02138,25.10113],[91.01971,25.10129],[91.01883,25.1016],[91.01841,25.10195],[91.01801,25.10247],[91.01754,25.1038],[91.01746,25.10547],[91.01695,25.10666],[91.01617,25.10751],[91.01492,25.10874],[91.01245,25.10966],[91.01019,25.11022],[91.0076,25.11045],[91.00627,25.11066],[91.00334,25.11005],[90.99909,25.10904],[90.99564,25.10837],[90.99409,25.10821],[90.9919,25.10841],[90.99089,25.10882],[90.99033,25.10885],[90.98901,25.10907],[90.98811,25.10913],[90.98735,25.10896],[90.98637,25.1086],[90.98589,25.10854],[90.98552,25.10858],[90.98523,25.11089],[90.98505,25.11291],[90.98515,25.11328],[90.98561,25.11369],[90.98637,25.11425],[90.98717,25.115],[90.98774,25.11597],[90.98828,25.11683],[90.98948,25.11841],[90.98957,25.11869],[90.98983,25.11948],[90.98982,25.11977],[90.98981,25.12051],[90.98981,25.12057],[90.98977,25.1211],[90.98959,25.12141],[90.98908,25.12181],[90.98853,25.12225],[90.9883,25.12243],[90.9881,25.12267],[90.98801,25.12278],[90.98765,25.1236],[90.98722,25.12453],[90.98698,25.12472],[90.98553,25.12492],[90.9831,25.12507],[90.98005,25.12509],[90.97975,25.12512],[90.97724,25.12514],[90.97343,25.1251],[90.96815,25.12687],[90.96543,25.12676],[90.96499,25.12651],[90.96421,25.12736],[90.96287,25.12922],[90.96183,25.1306],[90.96064,25.13204],[90.96012,25.13355],[90.96008,25.13759],[90.96094,25.14149],[90.96263,25.14627],[90.96378,25.14853],[90.96567,25.15009],[90.96884,25.15096],[90.97065,25.15232],[90.97269,25.15326],[90.97466,25.1551],[90.97633,25.15673],[90.97785,25.15816],[90.97853,25.15905],[90.97954,25.16052],[90.98118,25.16184],[90.98283,25.16342],[90.98895,25.16727],[90.99731,25.17124],[91.00887,25.17472],[91.02496,25.17853],[91.04296,25.18352],[91.05449,25.18632],[91.06315,25.18806],[91.0706,25.1887],[91.07354,25.18804],[91.07573,25.18786],[91.07655,25.18794],[91.07689,25.18806],[91.07734,25.18844],[91.07789,25.18887],[91.0784,25.18927],[91.07887,25.18931],[91.07955,25.18931],[91.08,25.18909],[91.08038,25.18859],[91.08062,25.18836],[91.08143,25.18754],[91.08323,25.18647],[91.08517,25.18589],[91.08609,25.18586],[91.08717,25.18676],[91.08788,25.18716],[91.08838,25.18722],[91.08901,25.18708],[91.0894,25.18684],[91.08964,25.18638],[91.08963,25.18583],[91.08973,25.18502],[91.08999,25.18468],[91.09059,25.18451],[91.09132,25.18443],[91.09214,25.18433],[91.0935,25.18389],[91.09504,25.18299],[91.09635,25.18227],[91.09763,25.1818],[91.09855,25.18156],[91.09986,25.18145],[91.10101,25.18133],[91.10119,25.18095],[91.10116,25.17997],[91.10131,25.17933],[91.10151,25.17856],[91.10148,25.17777],[91.10152,25.17644],[91.10172,25.17579],[91.10232,25.17495],[91.10281,25.17423],[91.10349,25.173],[91.10491,25.17139],[91.10529,25.17087],[91.10614,25.17032],[91.1068,25.16977],[91.10691,25.16878],[91.10691,25.16808],[91.10698,25.16715],[91.10751,25.16672],[91.10813,25.1664],[91.10934,25.16635],[91.10947,25.16619],[91.11071,25.16536],[91.11099,25.16465],[91.1114,25.16363],[91.11155,25.16333],[91.11225,25.16195],[91.11243,25.16086],[91.11214,25.15949],[91.11207,25.15817],[91.11189,25.15708],[91.11233,25.1558],[91.11281,25.15509],[91.11301,25.15481],[91.11307,25.15472],[91.11361,25.15441],[91.11552,25.15377],[91.11671,25.1526],[91.11739,25.15115],[91.11763,25.1499],[91.1177,25.14835],[91.11763,25.14711],[91.11721,25.14645],[91.11634,25.14577],[91.11502,25.14525],[91.11396,25.14493],[91.11366,25.14526],[91.11378,25.1462],[91.11334,25.14747],[91.11232,25.14849],[91.11163,25.14906],[91.10998,25.14925],[91.10878,25.149],[91.10788,25.14858],[91.10712,25.14777],[91.10701,25.14711],[91.10703,25.1463],[91.10724,25.14541],[91.10695,25.14414],[91.1066,25.1428],[91.10637,25.14168],[91.10656,25.14049],[91.10711,25.1396],[91.10777,25.13857],[91.10809,25.13715],[91.10802,25.13588],[91.10757,25.13497],[91.1059,25.13262],[91.10553,25.13184],[91.10544,25.13085],[91.10582,25.13034],[91.10668,25.13003],[91.10791,25.12966],[91.11028,25.12919],[91.11058,25.12913],[91.11048,25.12832],[91.1111,25.12814],[91.11133,25.12816],[91.11203,25.12884],[91.11248,25.12912],[91.11318,25.12947],[91.11349,25.12982],[91.11427,25.12984],[91.11524,25.12961],[91.11649,25.12917],[91.11744,25.12863],[91.11782,25.12786],[91.11787,25.12713],[91.11744,25.12629],[91.11677,25.12546],[91.11659,25.12462],[91.11689,25.12378],[91.11761,25.12309],[91.11897,25.12217],[91.12008,25.1219],[91.12203,25.12158],[91.12459,25.12116],[91.12593,25.12105],[91.1271,25.12068],[91.12843,25.11961],[91.12859,25.11897],[91.12806,25.11895],[91.12733,25.11883],[91.12702,25.1184],[91.12671,25.11784],[91.12662,25.11728],[91.12539,25.11742],[91.1238,25.11741],[91.12288,25.11693],[91.12228,25.11582],[91.12159,25.1156],[91.12008,25.11523],[91.11863,25.11534],[91.11754,25.11578],[91.11693,25.11599],[91.11587,25.11602],[91.1149,25.11608],[91.11345,25.11591],[91.11221,25.11546],[91.11171,25.11476],[91.11176,25.11405],[91.11234,25.11351],[91.11359,25.11312],[91.11397,25.11271],[91.1145,25.11204],[91.11455,25.11118],[91.11462,25.11006],[91.11509,25.10932],[91.11664,25.10812],[91.11694,25.10753],[91.11693,25.1068],[91.11654,25.10637],[91.11598,25.10625],[91.11537,25.10663],[91.11443,25.10717],[91.11368,25.10781],[91.11279,25.10822],[91.1121,25.10861],[91.11163,25.10892],[91.11051,25.109],[91.10973,25.10888],[91.109,25.10825],[91.10888,25.10772],[91.10907,25.10688],[91.10903,25.1066],[91.10923,25.10623],[91.10954,25.10593],[91.11005,25.10544],[91.11044,25.10488],[91.11057,25.10409],[91.11071,25.10321],[91.11022,25.10096],[91.11014,25.0997],[91.11011,25.09932],[91.11008,25.09888],[91.11006,25.09588],[91.11052,25.09509],[91.11105,25.0945],[91.11059,25.09329],[91.11036,25.09295]]]},"properties":{"name":"Tanguar Haor","boundary_source":"Bangladesh CRIIPS Haor Boundary layer 147, OBJECTID 202; mapped haor, not Ramsar site 1031","source_url":"https://www.arcgisbd.com/server/rest/services/ADB005/CRIIPS/MapServer/147/202?f=pjson","source_area_km2":116.5,"geodesic_area_km2":116.5889}}]}